NORAD_CAT_ID,OBJECT_NAME,OBJECT_TYPE,EPOCH,MEAN_MOTION,ECCENTRICITY,INCLINATION,RA_OF_ASC_NODE,ARG_OF_PERICENTER,MEAN_ANOMALY,BSTAR,MEAN_MOTION_DOT,MEAN_MOTION_DDOT,TLE_LINE0,TLE_LINE1,TLE_LINE2,SEMIMAJOR_AXIS,PERIOD,APOGEE,PERIGEE,DECAYED
53183.0,STARLINK-4268,PAYLOAD,2023-05-16 05:15:11,15.08839759,0.0001324,53.2178,66.0191,103.4963,256.6177,-5.3548e-06,-3.73e-06,0.0,0 STARLINK-4268,1 53183U 22083BD  23136.21887868 -.00000373  00000-0 -53548-5 0  9993,2 53183  53.2178  66.0191 0001324 103.4963 256.6177 15.08839759 46578,6917.881,95.438,540.662,538.83,0.0
53183.0,STARLINK-4268,PAYLOAD,2023-05-17 05:05:58,15.08844592,0.0001267,53.2175,61.5583,95.3903,264.7233,-7.2457e-05,-1.441e-05,0.0,0 STARLINK-4268,1 53183U 22083BD  23137.21247873 -.00001441  00000-0 -72457-4 0  9996,2 53183  53.2175  61.5583 0001267  95.3903 264.7233 15.08844592 47361,6917.866,95.437,540.608,538.855,0.0
53183.0,STARLINK-4268,PAYLOAD,2023-05-18 01:45:59,15.08834177,0.0001339,53.2173,57.6933,113.0947,247.0186,0.00016606,2.356e-05,0.0,0 STARLINK-4268,1 53183U 22083BD  23138.07360805  .00002356  00000-0  16606-3 0  9999,2 53183  53.2173  57.6933 0001339 113.0947 247.0186 15.08834177 47493,6917.898,95.438,540.689,538.837,0.0
53183.0,STARLINK-4268,PAYLOAD,2023-05-18 04:56:45,15.08835783,0.0001328,53.2173,57.098,111.2246,248.8888,0.00018279,2.622e-05,0.0,0 STARLINK-4268,1 53183U 22083BD  23138.20608789  .00002622  00000-0  18279-3 0  9994,2 53183  53.2173  57.0980 0001328 111.2246 248.8888 15.08835783 46872,6917.893,95.438,540.677,538.84,0.0
53183.0,STARLINK-4268,PAYLOAD,2023-05-18 14:29:04,15.08835973,0.0001317,53.217,55.313,113.0216,247.0915,0.00013363,1.839e-05,0.0,0 STARLINK-4268,1 53183U 22083BD  23138.60352915  .00001839  00000-0  13363-3 0  9993,2 53183  53.2170  55.3130 0001317 113.0216 247.0915 15.08835973 46932,6917.893,95.438,540.669,538.847,0.0
53183.0,STARLINK-4268,PAYLOAD,2023-05-19 03:12:09,15.08841195,0.0001216,53.2165,52.9347,98.4023,261.7107,0.00011105,1.48e-05,0.0,0 STARLINK-4268,1 53183U 22083BD  23139.13344788  .00001480  00000-0  11105-3 0  9995,2 53183  53.2165  52.9347 0001216  98.4023 261.7107 15.08841195 47658,6917.877,95.437,540.583,538.901,0.0
53183.0,STARLINK-4268,PAYLOAD,2023-05-20 03:02:56,15.08843606,0.0001276,53.2166,48.4742,103.9259,256.1876,0.00025178,3.722e-05,0.0,0 STARLINK-4268,1 53183U 22083BD  23140.12704815  .00003722  00000-0  25178-3 0  9993,2 53183  53.2166  48.4742 0001276 103.9259 256.1876 15.08843606 47163,6917.869,95.437,540.617,538.852,0.0
53183.0,STARLINK-4268,PAYLOAD,2023-05-20 23:42:57,15.08853306,0.0001165,53.2166,44.6082,97.2149,262.8975,0.0002179,3.183e-05,0.0,0 STARLINK-4268,1 53183U 22083BD  23140.98816029  .00003183  00000-0  21790-3 0  9995,2 53183  53.2166  44.6082 0001165  97.2149 262.8975 15.08853306 47935,6917.84,95.437,540.511,538.899,0.0
53183.0,STARLINK-4268,PAYLOAD,2023-05-21 02:53:42,15.08863278,0.000114,53.217,44.0142,87.5409,272.5713,0.00029875,4.473e-05,0.0,0 STARLINK-4268,1 53183U 22083BD  23141.12063517  .00004473  00000-0  29875-3 0  9993,2 53183  53.2170  44.0142 0001140  87.5409 272.5713 15.08863278 47954,6917.809,95.436,540.463,538.886,0.0
53183.0,STARLINK-4268,PAYLOAD,2023-05-21 17:12:12,15.08830396,0.0001136,53.2168,41.3391,84.804,275.3082,-0.00015703,-2.785e-05,0.0,0 STARLINK-4268,1 53183U 22083BD  23141.71681118 -.00002785  00000-0 -15703-3 0  9992,2 53183  53.2168  41.3391 0001136  84.8040 275.3082 15.08830396 48049,6917.91,95.438,540.561,538.989,0.0
53183.0,STARLINK-4268,PAYLOAD,2023-05-21 20:22:58,15.08829428,0.0001039,53.2173,40.7439,96.787,263.324,-0.00015449,-2.745e-05,0.0,0 STARLINK-4268,1 53183U 22083BD  23141.84929199 -.00002745  00000-0 -15449-3 0  9993,2 53183  53.2173  40.7439 0001039  96.7870 263.3240 15.08829428 47424,6917.913,95.438,540.496,539.059,0.0
53183.0,STARLINK-4268,PAYLOAD,2023-05-22 10:41:27,15.0883853,0.0001136,53.2177,38.0665,106.6004,253.5113,0.00016066,2.27e-05,0.0,0 STARLINK-4268,1 53183U 22083BD  23142.44545359  .00002270  00000-0  16066-3 0  9999,2 53183  53.2177  38.0665 0001136 106.6004 253.5113 15.08838530 47511,6917.885,95.438,540.536,538.964,0.0
53183.0,STARLINK-4268,PAYLOAD,2023-05-22 20:13:45,15.08845147,9.93e-05,53.2178,36.283,101.7254,258.385,0.00042095,6.419e-05,0.0,0 STARLINK-4268,1 53183U 22083BD  23142.84289334  .00006419  00000-0  42095-3 0  9991,2 53183  53.2178  36.2830 0000993 101.7254 258.3850 15.08845147 47578,6917.865,95.437,540.417,539.043,0.0
53183.0,STARLINK-4268,PAYLOAD,2023-05-23 02:35:18,15.08856327,0.0001057,53.2175,35.093,109.2851,250.8255,0.00096186,0.0001506,0.0,0 STARLINK-4268,1 53183U 22083BD  23143.10785248  .00015060  00000-0  96186-3 0  9998,2 53183  53.2175  35.0930 0001057 109.2851 250.8255 15.08856327 48255,6917.83,95.437,540.427,538.964,0.0
53183.0,STARLINK-4268,PAYLOAD,2023-05-23 20:04:32,15.08847298,0.0001538,53.218,31.8156,120.8363,239.278,0.00018056,2.587e-05,0.0,0 STARLINK-4268,1 53183U 22083BD  23143.83649274  .00002587  00000-0  18056-3 0  9996,2 53183  53.2180  31.8156 0001538 120.8363 239.2780 15.08847298 47728,6917.858,95.437,540.787,538.659,0.0
53183.0,STARLINK-4268,PAYLOAD,2023-05-24 02:26:05,15.0885034,9.61e-05,53.2175,30.634,90.7447,269.3655,0.00058891,9.1e-05,0.0,0 STARLINK-4268,1 53183U 22083BD  23144.10145411  .00009100  00000-0  58891-3 0  9990,2 53183  53.2175  30.6340 0000961  90.7447 269.3655 15.08850340 48404,6917.849,95.437,540.379,539.049,0.0
53183.0,STARLINK-4268,PAYLOAD,2023-05-25 16:35:21,15.08843491,0.0001049,53.2176,23.4996,100.7012,259.4099,0.00017841,2.553e-05,0.0,0 STARLINK-4268,1 53183U 22083BD  23145.69121539  .00002553  00000-0  17841-3 0  9995,2 53183  53.2176  23.4996 0001049 100.7012 259.4099 15.08843491 48647,6917.87,95.437,540.46,539.009,0.0
53183.0,STARLINK-4268,PAYLOAD,2023-05-25 21:21:30,15.08843072,9.56e-05,53.2168,22.6047,87.5945,272.5156,0.00014464,2.015e-05,0.0,0 STARLINK-4268,1 53183U 22083BD  23145.88993510  .00002015  00000-0  14464-3 0  9993,2 53183  53.2168  22.6047 0000956  87.5945 272.5156 15.08843072 48037,6917.871,95.437,540.397,539.075,0.0
53183.0,STARLINK-4268,PAYLOAD,2023-05-26 02:07:39,15.08847552,9.87e-05,53.2171,21.7138,93.5474,266.5631,0.00020878,3.037e-05,0.0,0 STARLINK-4268,1 53183U 22083BD  23146.08865300  .00003037  00000-0  20878-3 0  9992,2 53183  53.2171  21.7138 0000987  93.5474 266.5631 15.08847552 48061,6917.857,95.437,540.405,539.04,0.0
53183.0,STARLINK-4268,PAYLOAD,2023-05-26 21:12:17,15.08836996,9.84e-05,53.2171,18.1431,88.2734,271.837,-4.046e-05,-9.32e-06,0.0,0 STARLINK-4268,1 53183U 22083BD  23146.88353797 -.00000932  00000-0 -40460-4 0  9995,2 53183  53.2171  18.1431 0000984  88.2734 271.8370 15.08836996 48186,6917.89,95.438,540.435,539.074,0.0
53183.0,STARLINK-4268,PAYLOAD,2023-05-27 01:58:28,15.08805119,0.0001307,53.2171,17.2516,84.9583,275.1558,0.0010201,0.00015969,0.0,0 STARLINK-4268,1 53183U 22083BD  23147.08227844  .00015969  00000-0  10201-2 0  9993,2 53183  53.2171  17.2516 0001307  84.9583 275.1558 15.08805119 48857,6917.987,95.44,540.756,538.948,0.0
53183.0,STARLINK-4268,PAYLOAD,2023-05-27 08:19:59,15.08839768,9.93e-05,53.2172,16.0627,86.8749,273.2357,-9.9887e-06,-4.47e-06,0.0,0 STARLINK-4268,1 53183U 22083BD  23147.34721813 -.00000447  00000-0 -99887-5 0  9994,2 53183  53.2172  16.0627 0000993  86.8749 273.2357 15.08839768 48890,6917.881,95.438,540.433,539.059,0.0
53183.0,STARLINK-4268,PAYLOAD,2023-05-27 21:03:04,15.08849019,0.0001005,53.2171,13.6831,93.277,266.8337,-6.5328e-05,-1.328e-05,0.0,0 STARLINK-4268,1 53183U 22083BD  23147.87713406 -.00001328  00000-0 -65328-4 0  9992,2 53183  53.2171  13.6831 0001005  93.2770 266.8337 15.08849019 48335,6917.853,95.437,540.413,539.023,0.0
53183.0,STARLINK-4268,PAYLOAD,2023-05-28 00:13:50,15.08846301,0.0001089,53.2176,13.0883,88.1559,271.9558,0.00017191,2.45e-05,0.0,0 STARLINK-4268,1 53183U 22083BD  23148.00961591  .00002450  00000-0  17191-3 0  9997,2 53183  53.2176  13.0883 0001089  88.1559 271.9558 15.08846301 48356,6917.861,95.437,540.479,538.973,0.0
53183.0,STARLINK-4268,PAYLOAD,2023-05-28 20:53:51,15.0884471,0.000105,53.2178,9.2223,88.846,271.2652,0.00016535,2.345e-05,0.0,0 STARLINK-4268,1 53183U 22083BD  23148.87073751  .00002345  00000-0  16535-3 0  9998,2 53183  53.2178   9.2223 0001050  88.8460 271.2652 15.08844710 48483,6917.866,95.437,540.457,539.005,0.0
53183.0,STARLINK-4268,PAYLOAD,2023-05-29 00:04:37,15.08848104,0.0001096,53.2177,8.6275,89.491,270.6208,0.00020732,3.014e-05,0.0,0 STARLINK-4268,1 53183U 22083BD  23149.00321574  .00003014  00000-0  20732-3 0  9991,2 53183  53.2177   8.6275 0001096  89.4910 270.6208 15.08848104 49144,6917.856,95.437,540.479,538.962,0.0
53183.0,STARLINK-4268,PAYLOAD,2023-05-29 20:44:38,15.08844091,9.81e-05,53.2173,4.7632,114.5892,245.5202,4.4256e-05,4.17e-06,0.0,0 STARLINK-4268,1 53183U 22083BD  23149.86433838  .00000417  00000-0  44256-4 0  9994,2 53183  53.2173   4.7632 0000981 114.5892 245.5202 15.08844091 48634,6917.868,95.437,540.412,539.054,0.0
53183.0,STARLINK-4268,PAYLOAD,2023-05-29 23:55:25,15.08845522,0.0001033,53.2174,4.1676,113.3181,246.792,7.8019e-05,9.54e-06,0.0,0 STARLINK-4268,1 53183U 22083BD  23149.99681748  .00000954  00000-0  78019-4 0  9993,2 53183  53.2174   4.1676 0001033 113.3181 246.7920 15.08845522 49297,6917.864,95.437,540.443,539.014,0.0
53183.0,STARLINK-4268,PAYLOAD,2023-05-30 19:00:02,15.08841057,0.0001067,53.2169,0.5992,95.2187,264.8927,4.1166e-05,3.67e-06,0.0,0 STARLINK-4268,1 53183U 22083BD  23150.79170109  .00000367  00000-0  41166-4 0  9998,2 53183  53.2169   0.5992 0001067  95.2187 264.8927 15.08841057 49414,6917.877,95.437,540.48,539.004,0.0
53183.0,STARLINK-4268,PAYLOAD,2023-05-30 20:35:26,15.08842834,0.000102,53.2165,0.303,86.0701,274.0408,5.3971e-05,5.71e-06,0.0,0 STARLINK-4268,1 53183U 22083BD  23150.85794044  .00000571  00000-0  53971-4 0  9999,2 53183  53.2165   0.3030 0001020  86.0701 274.0408 15.08842834 48780,6917.872,95.437,540.442,539.031,0.0
